{
    "_id": {
        "$oid": "5d6d1943e07a7417689df81c"
    },
    "lat": "0",
    "lng": "0",
    "name_th": "ท่าอากาศยานสุวรรณภูมิ",
    "name_eng": "Suvarnabhumi Airport",
    "city_th": "สมุทรปราการ",
    "city_eng": "Samut Prakan",
    "__v": {
        "$numberInt": "0"
    }
} {
    "_id": {
        "$oid": "5d6d198de07a7417689df81d"
    },
    "lat": "0",
    "lng": "0",
    "name_th": "ท่าอากาศยานดอนเมือง",
    "name_eng": "Don Mueang International Airport",
    "city_th": "กรุงเทพมหานคร",
    "city_eng": "Bangkok",
    "__v": {
        "$numberInt": "0"
    }
} {
    "_id": {
        "$oid": "5d6d19d2e07a7417689df81e"
    },
    "lat": "0",
    "lng": "0",
    "name_th": "ท่าอากาศยานเชียงใหม่",
    "name_eng": "Chiang Mai International Airport",
    "city_th": "เชียงใหม่",
    "city_eng": "Chiang Mai",
    "__v": {
        "$numberInt": "0"
    }
} {
    "_id": {
        "$oid": "5d6d1a1be07a7417689df81f"
    },
    "lat": "0",
    "lng": "0",
    "name_th": "ท่าอากาศยานแม่ฟ้าหลวง เชียงราย",
    "name_eng": "Mae Fah Luang – Chiang Rai International Airport",
    "city_th": "เชียงราย",
    "city_eng": "Chiang Rai",
    "__v": {
        "$numberInt": "0"
    }
} {
    "_id": {
        "$oid": "5d6d1a73e07a7417689df820"
    },
    "lat": "0",
    "lng": "0",
    "name_th": "ท่าอากาศยานภูเก็ต",
    "name_eng": "Phuket International Airport",
    "city_th": "ภูเก็ต",
    "city_eng": "Phuket",
    "__v": {
        "$numberInt": "0"
    }
} {
    "_id": {
        "$oid": "5d6d1aa3e07a7417689df821"
    },
    "lat": "0",
    "lng": "0",
    "name_th": "ท่าอากาศยานหาดใหญ่",
    "name_eng": "Hat Yai International Airport",
    "city_th": "สงขลา",
    "city_eng": "Songkhla",
    "__v": {
        "$numberInt": "0"
    }
} {
    "_id": {
        "$oid": "5d6d1ad8e07a7417689df822"
    },
    "lat": "0",
    "lng": "0",
    "name_th": "ท่าอากาศยานนานาชาติกระบี่",
    "name_eng": "Krabi International Airport",
    "city_th": "กระบี่",
    "city_eng": "Krabi",
    "__v": {
        "$numberInt": "0"
    }
} {
    "_id": {
        "$oid": "5d6d1b0be07a7417689df823"
    },
    "lat": "0",
    "lng": "0",
    "name_th": "ท่าอากาศยานขอนแก่น",
    "name_eng": "Khon Kaen Airport",
    "city_th": "ขอนแก่น",
    "city_eng": "Khon Kaen",
    "__v": {
        "$numberInt": "0"
    }
} {
    "_id": {
        "$oid": "5d6d1b30e07a7417689df824"
    },
    "lat": "0",
    "lng": "0",
    "name_th": "ท่าอากาศยานนครศรีธรรมราช",
    "name_eng": "Nakhon Si Thammarat Airport",
    "city_th": "นครศรีธรรมราช",
    "city_eng": "Nakhon Si Thammarat",
    "__v": {
        "$numberInt": "0"
    }
} {
    "_id": {
        "$oid": "5d6d1b4ee07a7417689df825"
    },
    "lat": "0",
    "lng": "0",
    "name_th": "ท่าอากาศยานน่านนคร",
    "name_eng": "Nan Nakhon Airport",
    "city_th": "น่าน",
    "city_eng": "Nan",
    "__v": {
        "$numberInt": "0"
    }
} {
    "_id": {
        "$oid": "5d6d1c1ee07a7417689df826"
    },
    "lat": "0",
    "lng": "0",
    "name_th": "ท่าอากาศยานนานาชาติสุราษฎร์ธานี",
    "name_eng": "Surat Thani International Airport",
    "city_th": "สุราษฎร์ธานี",
    "city_eng": "Surat Thani",
    "__v": {
        "$numberInt": "0"
    }
}